[{"OBJECT_NAME":"CARBONITE 1 (CBNT-1)","OBJECT_ID":"2015-032D","EPOCH":"2026-03-09T23:00:42.777216","MEAN_MOTION":14.83223736,"ECCENTRICITY":0.0013267,"INCLINATION":97.6467,"RA_OF_ASC_NODE":251.2159,"ARG_OF_PERICENTER":259.6402,"MEAN_ANOMALY":100.3317,"EPHEMERIS_TYPE":0,"CLASSIFICATION_TYPE":"U","NORAD_CAT_ID":40718,"ELEMENT_SET_NO":999,"REV_AT_EPOCH":57463,"BSTAR":0.00052444673,"MEAN_MOTION_DOT":4.241e-5,"MEAN_MOTION_DDOT":0},{"OBJECT_NAME":"KUIPER-00210","OBJECT_ID":"2025-301P","EPOCH":"2026-03-09T22:00:01.999584","MEAN_MOTION":14.81753192,"ECCENTRICITY":0.00020451,"INCLINATION":51.899,"RA_OF_ASC_NODE":72.1231,"ARG_OF_PERICENTER":117.4503,"MEAN_ANOMALY":206.8766,"EPHEMERIS_TYPE":0,"CLASSIFICATION_TYPE":"U","NORAD_CAT_ID":67146,"ELEMENT_SET_NO":999,"REV_AT_EPOCH":580,"BSTAR":0.0025283371,"MEAN_MOTION_DOT":0.00019966,"MEAN_MOTION_DDOT":0}]
